ONEWEB-0043             
1 45149U 20008U   23302.86237389  .00000594  00000+0  16662-2 0  9999
2 45149  87.8911 227.1777 0002387  74.6367 285.5024 13.10372770182283
ONEWEB-0044             
1 45150U 20008V   23302.81522408 -.00000962  00000+0 -27919-2 0  9993
2 45150  87.8912 227.1847 0002247  74.8079 285.3297 13.10375126182571
ONEWEB-0045             
1 45151U 20008W   23303.20472278  .00000593  00000+0  16364-2 0  9997
2 45151  87.8995 211.9686 0001735  74.1218 286.0101 13.11415963185237
ONEWEB-0047             
1 45152U 20008X   23302.80712799 -.00000125  00000+0 -39402-3 0  9990
2 45152  87.8909 227.1881 0001956  73.9628 286.1715 13.10375629182294
ONEWEB-0048             
1 45153U 20008Y   23303.18402941  .00000258  00000+0  70292-3 0  9995
2 45153  87.8910 227.1239 0001936  74.6597 285.4745 13.10371372182729
ONEWEB-0049             
1 45154U 20008Z   23303.18567047  .00000595  00000+0  16673-2 0  9991
2 45154  87.8914 227.0944 0001936  77.5887 282.5457 13.10370803182951
ONEWEB-0051             
1 45155U 20008AA  23303.20308755  .00000632  00000+0  17469-2 0  9990
2 45155  87.8999 212.0034 0001614  71.6958 288.4345 13.11420784185911
ONEWEB-0052             
1 45156U 20008AB  23302.87696945  .00000173  00000+0  46039-3 0  9990
2 45156  87.8915 227.1397 0002480  87.3853 272.7558 13.10369755182041
