<?xml version="1.0" encoding="UTF-8"?>
<ndm xmlns:xsi="http://www.w3.org/2001/XMLSchema-instance" xsi:noNamespaceSchemaLocation="https://sanaregistry.org/r/ndmxml_unqualified/ndmxml-2.0.0-master-2.0.xsd">
<omm id="CCSDS_OMM_VERS" version="2.0">
<header><CREATION_DATE/><ORIGINATOR/></header><body><segment><metadata><OBJECT_NAME>ONEWEB-0043</OBJECT_NAME><OBJECT_ID>2020-008U</OBJECT_ID><CENTER_NAME>EARTH</CENTER_NAME><REF_FRAME>TEME</REF_FRAME><TIME_SYSTEM>UTC</TIME_SYSTEM><MEAN_ELEMENT_THEORY>SGP4</MEAN_ELEMENT_THEORY></metadata><data><meanElements><EPOCH>2023-10-29T20:41:49.104096</EPOCH><MEAN_MOTION>13.10372770</MEAN_MOTION><ECCENTRICITY>.0002387</ECCENTRICITY><INCLINATION>87.8911</INCLINATION><RA_OF_ASC_NODE>227.1777</RA_OF_ASC_NODE><ARG_OF_PERICENTER>74.6367</ARG_OF_PERICENTER><MEAN_ANOMALY>285.5024</MEAN_ANOMALY></meanElements><tleParameters><EPHEMERIS_TYPE>0</EPHEMERIS_TYPE><CLASSIFICATION_TYPE>U</CLASSIFICATION_TYPE><NORAD_CAT_ID>45149</NORAD_CAT_ID><ELEMENT_SET_NO>999</ELEMENT_SET_NO><REV_AT_EPOCH>18228</REV_AT_EPOCH><BSTAR>.16662E-2</BSTAR><MEAN_MOTION_DOT>.594E-5</MEAN_MOTION_DOT><MEAN_MOTION_DDOT>0</MEAN_MOTION_DDOT></tleParameters></data></segment></body></omm>
<omm id="CCSDS_OMM_VERS" version="2.0">
<header><CREATION_DATE/><ORIGINATOR/></header><body><segment><metadata><OBJECT_NAME>ONEWEB-0044</OBJECT_NAME><OBJECT_ID>2020-008V</OBJECT_ID><CENTER_NAME>EARTH</CENTER_NAME><REF_FRAME>TEME</REF_FRAME><TIME_SYSTEM>UTC</TIME_SYSTEM><MEAN_ELEMENT_THEORY>SGP4</MEAN_ELEMENT_THEORY></metadata><data><meanElements><EPOCH>2023-10-29T19:33:55.360512</EPOCH><MEAN_MOTION>13.10375126</MEAN_MOTION><ECCENTRICITY>.0002247</ECCENTRICITY><INCLINATION>87.8912</INCLINATION><RA_OF_ASC_NODE>227.1847</RA_OF_ASC_NODE><ARG_OF_PERICENTER>74.8079</ARG_OF_PERICENTER><MEAN_ANOMALY>285.3297</MEAN_ANOMALY></meanElements><tleParameters><EPHEMERIS_TYPE>0</EPHEMERIS_TYPE><CLASSIFICATION_TYPE>U</CLASSIFICATION_TYPE><NORAD_CAT_ID>45150</NORAD_CAT_ID><ELEMENT_SET_NO>999</ELEMENT_SET_NO><REV_AT_EPOCH>18257</REV_AT_EPOCH><BSTAR>-.27919E-2</BSTAR><MEAN_MOTION_DOT>-.962E-5</MEAN_MOTION_DOT><MEAN_MOTION_DDOT>0</MEAN_MOTION_DDOT></tleParameters></data></segment></body></omm>
<omm id="CCSDS_OMM_VERS" version="2.0">
<header><CREATION_DATE/><ORIGINATOR/></header><body><segment><metadata><OBJECT_NAME>ONEWEB-0045</OBJECT_NAME><OBJECT_ID>2020-008W</OBJECT_ID><CENTER_NAME>EARTH</CENTER_NAME><REF_FRAME>TEME</REF_FRAME><TIME_SYSTEM>UTC</TIME_SYSTEM><MEAN_ELEMENT_THEORY>SGP4</MEAN_ELEMENT_THEORY></metadata><data><meanElements><EPOCH>2023-10-30T04:54:48.048192</EPOCH><MEAN_MOTION>13.11415963</MEAN_MOTION><ECCENTRICITY>.0001735</ECCENTRICITY><INCLINATION>87.8995</INCLINATION><RA_OF_ASC_NODE>211.9686</RA_OF_ASC_NODE><ARG_OF_PERICENTER>74.1218</ARG_OF_PERICENTER><MEAN_ANOMALY>286.0101</MEAN_ANOMALY></meanElements><tleParameters><EPHEMERIS_TYPE>0</EPHEMERIS_TYPE><CLASSIFICATION_TYPE>U</CLASSIFICATION_TYPE><NORAD_CAT_ID>45151</NORAD_CAT_ID><ELEMENT_SET_NO>999</ELEMENT_SET_NO><REV_AT_EPOCH>18523</REV_AT_EPOCH><BSTAR>.16364E-2</BSTAR><MEAN_MOTION_DOT>.593E-5</MEAN_MOTION_DOT><MEAN_MOTION_DDOT>0</MEAN_MOTION_DDOT></tleParameters></data></segment></body></omm>
<omm id="CCSDS_OMM_VERS" version="2.0">
<header><CREATION_DATE/><ORIGINATOR/></header><body><segment><metadata><OBJECT_NAME>ONEWEB-0047</OBJECT_NAME><OBJECT_ID>2020-008X</OBJECT_ID><CENTER_NAME>EARTH</CENTER_NAME><REF_FRAME>TEME</REF_FRAME><TIME_SYSTEM>UTC</TIME_SYSTEM><MEAN_ELEMENT_THEORY>SGP4</MEAN_ELEMENT_THEORY></metadata><data><meanElements><EPOCH>2023-10-29T19:22:15.858336</EPOCH><MEAN_MOTION>13.10375629</MEAN_MOTION><ECCENTRICITY>.0001956</ECCENTRICITY><INCLINATION>87.8909</INCLINATION><RA_OF_ASC_NODE>227.1881</RA_OF_ASC_NODE><ARG_OF_PERICENTER>73.9628</ARG_OF_PERICENTER><MEAN_ANOMALY>286.1715</MEAN_ANOMALY></meanElements><tleParameters><EPHEMERIS_TYPE>0</EPHEMERIS_TYPE><CLASSIFICATION_TYPE>U</CLASSIFICATION_TYPE><NORAD_CAT_ID>45152</NORAD_CAT_ID><ELEMENT_SET_NO>999</ELEMENT_SET_NO><REV_AT_EPOCH>18229</REV_AT_EPOCH><BSTAR>-.39402E-3</BSTAR><MEAN_MOTION_DOT>-.125E-5</MEAN_MOTION_DOT><MEAN_MOTION_DDOT>0</MEAN_MOTION_DDOT></tleParameters></data></segment></body></omm>
<omm id="CCSDS_OMM_VERS" version="2.0">
<header><CREATION_DATE/><ORIGINATOR/></header><body><segment><metadata><OBJECT_NAME>ONEWEB-0048</OBJECT_NAME><OBJECT_ID>2020-008Y</OBJECT_ID><CENTER_NAME>EARTH</CENTER_NAME><REF_FRAME>TEME</REF_FRAME><TIME_SYSTEM>UTC</TIME_SYSTEM><MEAN_ELEMENT_THEORY>SGP4</MEAN_ELEMENT_THEORY></metadata><data><meanElements><EPOCH>2023-10-30T04:25:00.141024</EPOCH><MEAN_MOTION>13.10371372</MEAN_MOTION><ECCENTRICITY>.0001936</ECCENTRICITY><INCLINATION>87.8910</INCLINATION><RA_OF_ASC_NODE>227.1239</RA_OF_ASC_NODE><ARG_OF_PERICENTER>74.6597</ARG_OF_PERICENTER><MEAN_ANOMALY>285.4745</MEAN_ANOMALY></meanElements><tleParameters><EPHEMERIS_TYPE>0</EPHEMERIS_TYPE><CLASSIFICATION_TYPE>U</CLASSIFICATION_TYPE><NORAD_CAT_ID>45153</NORAD_CAT_ID><ELEMENT_SET_NO>999</ELEMENT_SET_NO><REV_AT_EPOCH>18272</REV_AT_EPOCH><BSTAR>.70292E-3</BSTAR><MEAN_MOTION_DOT>.258E-5</MEAN_MOTION_DOT><MEAN_MOTION_DDOT>0</MEAN_MOTION_DDOT></tleParameters></data></segment></body></omm>
<omm id="CCSDS_OMM_VERS" version="2.0">
<header><CREATION_DATE/><ORIGINATOR/></header><body><segment><metadata><OBJECT_NAME>ONEWEB-0049</OBJECT_NAME><OBJECT_ID>2020-008Z</OBJECT_ID><CENTER_NAME>EARTH</CENTER_NAME><REF_FRAME>TEME</REF_FRAME><TIME_SYSTEM>UTC</TIME_SYSTEM><MEAN_ELEMENT_THEORY>SGP4</MEAN_ELEMENT_THEORY></metadata><data><meanElements><EPOCH>2023-10-30T04:27:21.928608</EPOCH><MEAN_MOTION>13.10370803</MEAN_MOTION><ECCENTRICITY>.0001936</ECCENTRICITY><INCLINATION>87.8914</INCLINATION><RA_OF_ASC_NODE>227.0944</RA_OF_ASC_NODE><ARG_OF_PERICENTER>77.5887</ARG_OF_PERICENTER><MEAN_ANOMALY>282.5457</MEAN_ANOMALY></meanElements><tleParameters><EPHEMERIS_TYPE>0</EPHEMERIS_TYPE><CLASSIFICATION_TYPE>U</CLASSIFICATION_TYPE><NORAD_CAT_ID>45154</NORAD_CAT_ID><ELEMENT_SET_NO>999</ELEMENT_SET_NO><REV_AT_EPOCH>18295</REV_AT_EPOCH><BSTAR>.16673E-2</BSTAR><MEAN_MOTION_DOT>.595E-5</MEAN_MOTION_DOT><MEAN_MOTION_DDOT>0</MEAN_MOTION_DDOT></tleParameters></data></segment></body></omm>
<omm id="CCSDS_OMM_VERS" version="2.0">
<header><CREATION_DATE/><ORIGINATOR/></header><body><segment><metadata><OBJECT_NAME>ONEWEB-0051</OBJECT_NAME><OBJECT_ID>2020-008AA</OBJECT_ID><CENTER_NAME>EARTH</CENTER_NAME><REF_FRAME>TEME</REF_FRAME><TIME_SYSTEM>UTC</TIME_SYSTEM><MEAN_ELEMENT_THEORY>SGP4</MEAN_ELEMENT_THEORY></metadata><data><meanElements><EPOCH>2023-10-30T04:52:26.764320</EPOCH><MEAN_MOTION>13.11420784</MEAN_MOTION><ECCENTRICITY>.0001614</ECCENTRICITY><INCLINATION>87.8999</INCLINATION><RA_OF_ASC_NODE>212.0034</RA_OF_ASC_NODE><ARG_OF_PERICENTER>71.6958</ARG_OF_PERICENTER><MEAN_ANOMALY>288.4345</MEAN_ANOMALY></meanElements><tleParameters><EPHEMERIS_TYPE>0</EPHEMERIS_TYPE><CLASSIFICATION_TYPE>U</CLASSIFICATION_TYPE><NORAD_CAT_ID>45155</NORAD_CAT_ID><ELEMENT_SET_NO>999</ELEMENT_SET_NO><REV_AT_EPOCH>18591</REV_AT_EPOCH><BSTAR>.17469E-2</BSTAR><MEAN_MOTION_DOT>.632E-5</MEAN_MOTION_DOT><MEAN_MOTION_DDOT>0</MEAN_MOTION_DDOT></tleParameters></data></segment></body></omm>
<omm id="CCSDS_OMM_VERS" version="2.0">
<header><CREATION_DATE/><ORIGINATOR/></header><body><segment><metadata><OBJECT_NAME>ONEWEB-0052</OBJECT_NAME><OBJECT_ID>2020-008AB</OBJECT_ID><CENTER_NAME>EARTH</CENTER_NAME><REF_FRAME>TEME</REF_FRAME><TIME_SYSTEM>UTC</TIME_SYSTEM><MEAN_ELEMENT_THEORY>SGP4</MEAN_ELEMENT_THEORY></metadata><data><meanElements><EPOCH>2023-10-29T21:02:50.160480</EPOCH><MEAN_MOTION>13.10369755</MEAN_MOTION><ECCENTRICITY>.000248</ECCENTRICITY><INCLINATION>87.8915</INCLINATION><RA_OF_ASC_NODE>227.1397</RA_OF_ASC_NODE><ARG_OF_PERICENTER>87.3853</ARG_OF_PERICENTER><MEAN_ANOMALY>272.7558</MEAN_ANOMALY></meanElements><tleParameters><EPHEMERIS_TYPE>0</EPHEMERIS_TYPE><CLASSIFICATION_TYPE>U</CLASSIFICATION_TYPE><NORAD_CAT_ID>45156</NORAD_CAT_ID><ELEMENT_SET_NO>999</ELEMENT_SET_NO><REV_AT_EPOCH>18204</REV_AT_EPOCH><BSTAR>.46039E-3</BSTAR><MEAN_MOTION_DOT>.173E-5</MEAN_MOTION_DOT><MEAN_MOTION_DDOT>0</MEAN_MOTION_DDOT></tleParameters></data></segment></body></omm>

</ndm>
